EUTELSAT 174A           
1 28924U 05052A   20343.22019243  .00000021  00000-0  00000-0 0  9995
2 28924   0.0630 357.0618 0006185 258.3827  75.2764  1.00271922 32102
ECHOSTAR 10             
1 28935U 06003A   20343.15336465 -.00000044  00000-0  00000-0 0  9990
2 28935   0.0165  16.9104 0001671 212.0301 153.4633  1.00270870 54241
SPAINSAT                
1 28945U 06007A   20342.86899523 -.00000204  00000-0  00000-0 0  9999
2 28945   0.0320 184.2404 0006161  68.9898 106.7225  1.00270045 53998
EUTELSAT HOT BIRD 13E   
1 28946U 06007B   20343.39771781  .00000098  00000-0  00000+0 0  9993
2 28946   0.0589 139.3251 0005865  98.4924 355.9761  1.00271190 54070
JCSAT-5A                
1 29045U 06010A   20343.02966285 -.00000316  00000-0  00000-0 0  9998
2 29045   0.0172 292.6395 0001761 324.8482 322.5124  1.00271108 53539
ASTRA 1KR               
1 29055U 06012A   20343.18276986  .00000131  00000-0  00000-0 0  9994
2 29055   0.0240 276.3587 0005202 331.3399 274.6976  1.00271572 25505
EWS-G1 (GOES 13)        
1 29155U 06018A   20343.56438269  .00000049  00000-0  00000+0 0  9994
2 29155   0.2646 108.7905 0007818 120.4292 113.1687  1.00270434 53282
EUTELSAT 113 WEST A     
1 29162U 06020A   20343.45003439 -.00000026  00000-0  00000+0 0  9996
2 29162   0.0412 130.3557 0002935 125.2144 231.1103  1.00271760 53240
GALAXY 16 (G-16)        
1 29236U 06023A   20343.45969071 -.00000116  00000-0  00000+0 0  9994
2 29236   0.0138 298.4439 0002853 331.6068 234.1185  1.00271279 53045
EUTELSAT HOT BIRD 13B   
1 29270U 06032A   20343.39771781  .00000098  00000-0  00000+0 0  9992
2 29270   0.0682  37.5712 0004445 249.2664 306.9594  1.00271165 52638
JCSAT-3A                
1 29272U 06033A   20343.43729993 -.00000334  00000-0  00000+0 0  9992
2 29272   0.0145 326.1935 0002402 301.8710  95.0146  1.00267429 52543
SYRACUSE 3B             
1 29273U 06033B   20343.40327236 -.00000033  00000-0  00000+0 0  9990
2 29273   0.0137  47.7170 0004191 208.6957 321.1976  1.00270494 52524
KOREASAT 5 (MUGUNGWHA 5)
1 29349U 06034A   20342.89285644 -.00000347  00000-0  00000-0 0  9992
2 29349   0.0154 302.5904 0001177 303.0716 265.9588  1.00267530 21097
DIRECTV 9S              
1 29494U 06043A   20343.18174194 -.00000101  00000-0  00000-0 0  9991
2 29494   0.0402 140.9628 0002553 116.0113 144.6533  1.00272236 31164
OPTUS D1                
1 29495U 06043B   20343.47541531 -.00000099  00000-0  00000+0 0  9992
2 29495   0.0363  97.1300 0003496 159.0235 152.7004  1.00271167 51921
XM-4 (BLUES)            
1 29520U 06049A   20343.15041786 -.00000011  00000-0  00000-0 0  9994
2 29520   0.0116 329.9251 0000354  73.0942 333.2101  1.00270379 31248
BADR-4                  
1 29526U 06051A   20343.08521521  .00000156  00000-0  00000-0 0  9994
2 29526   0.0637 320.7383 0006311 324.2963 208.9675  1.00274377 31055
WILDBLUE-1              
1 29643U 06054A   20343.41274116 -.00000038  00000-0  00000+0 0  9998
2 29643   0.0169 353.9431 0001500 272.1524 208.9274  1.00270030 51325
AMC-18                  
1 29644U 06054B   20338.80135872 -.00000218  00000-0  00000-0 0  9992
2 29644   0.0210  47.3464 0006099 346.8952 244.2713  1.00474141 51291
MEASAT-3                
1 29648U 06056A   20343.41091144 -.00000229  00000-0  00000+0 0  9995
2 29648   0.0126 114.8156 0001760 110.4739  91.7520  1.00266341 51334
INSAT-4B                
1 30793U 07007A   20343.05809104 -.00000178  00000-0  00000-0 0  9992
2 30793   0.8562  95.6857 0007487 166.4568 281.5846  1.00271875 21982
SKYNET 5A               
1 30794U 07007B   20342.87132740 -.00000259  00000-0  00000-0 0  9997
2 30794   0.9786  91.1244 0003530 169.1325 225.6979  1.00269328 50471
ANIK F3                 
1 31102U 07009A   20343.48087222  .00000010  00000-0  00000+0 0  9998
2 31102   0.0023   1.3035 0001743 274.1498 216.6493  1.00270424 50114
ASTRA 1L                
1 31306U 07016A   20343.18276986  .00000131  00000-0  00000-0 0  9991
2 31306   0.0384 320.3148 0005054 319.5049 242.5833  1.00269926 24813
GALAXY 17 (G-17)        
1 31307U 07016B   20343.42454375 -.00000163  00000-0  00000+0 0  9994
2 31307   0.0165 359.2374 0003216 262.9388 237.3162  1.00272153 49852
ZHONGXING-6B            
1 31800U 07031A   20343.32757990 -.00000350  00000-0  00000+0 0  9995
2 31800   0.0188 307.1627 0004381 316.0344  47.8183  1.00272282 49248
DIRECTV 10              
1 31862U 07032A   20343.45651316 -.00000092  00000-0  00000+0 0  9996
2 31862   0.0271 116.5354 0000387  99.7617 282.9332  1.00269610 49180
SPACEWAY 3              
1 32018U 07036A   20343.42231499 -.00000141  00000-0  00000+0 0  9992
2 32018   0.0310 152.2613 0000367  78.7225 263.7657  1.00278458 48909
BSAT-3A                 
1 32019U 07036B   20343.09424253 -.00000339  00000-0  00000-0 0  9998
2 32019   0.0494 220.5605 0003741  22.3754 338.1822  1.00271925 30290
INSAT-4CR               
1 32050U 07037A   20343.18104972 -.00000187  00000-0  00000-0 0  9998
2 32050   1.7529  91.6147 0000820 317.0227  85.1746  0.99221737 31168
OPTUS D2                
1 32252U 07044A   20343.20578293 -.00000172  00000-0  00000-0 0  9998
2 32252   0.0258 285.1022 0003657 332.9318  45.4793  1.00271088 48349
INTELSAT 11 (IS-11)     
1 32253U 07044B   20343.31785424 -.00000257  00000-0  00000+0 0  9990
2 32253   0.0172 318.1968 0003036 351.1743 199.6067  1.00280673 48309
WGS F1 (USA 195)        
1 32258U 07046A   20343.39771781  .00000052  00000-0  00000+0 0  9998
2 32258   0.0132  20.7404 0000215 197.2723   8.7941  1.00269984 48093
STAR ONE C1             
1 32293U 07056A   20343.49313294 -.00000265  00000-0  00000+0 0  9997
2 32293   0.0105 357.3939 0002659 252.8134 300.0435  1.00267171 47880
SKYNET 5B               
1 32294U 07056B   20343.08521521  .00000154  00000-0  00000-0 0  9994
2 32294   0.1689  73.0782 0004247 182.5961 237.4153  1.00274303 47974
ASTRA 4A (SIRIUS 4)     
1 32299U 07057A   20343.39771781  .00000044  00000-0  00000+0 0  9996
2 32299   0.0308  60.0221 0003131 198.9247 326.6566  1.00271565 47739
HORIZONS 2              
1 32388U 07063B   20343.11091076 -.00000171  00000-0  00000-0 0  9997
2 32388   0.0171 305.6207 0002659 312.8294 303.6581  1.00269906 47627
THURAYA-3               
1 32404U 08001A   20343.04247125 -.00000292  00000-0  00000-0 0  9993
2 32404   3.7937  13.1656 0004779 240.9848 296.9144  1.00270121 47266
EXPRESS-AM33            
1 32478U 08003A   20340.41638964 -.00000266  00000-0  00000-0 0  9990
2 32478   0.0098 136.4635 0000891 182.2135   2.4110  1.00269511 47353
THOR 5                  
1 32487U 08006A   20343.40327236  .00000002  00000-0  00000+0 0  9998
2 32487   0.0104 330.8692 0002468 301.5569 309.6131  1.00269829 46955
AMC-14                  
1 32708U 08011A   20342.82480302  .00000087  00000-0  00000-0 0  9993
2 32708  21.2353  45.2099 0036523 357.8341 348.8940  1.00272671 47921
DIRECTV 11              
1 32729U 08013A   20343.45969049 -.00000115  00000-0  00000+0 0  9990
2 32729   0.0371 161.7743 0000298  65.1491 277.0745  1.00274260 46712
ICO G1                  
1 32763U 08016A   20343.42400753 -.00000162  00000-0  00000+0 0  9992
2 32763   3.6839  16.3205 0002006 251.7043 229.4105  1.00277876 46246
VINASAT-1               
1 32767U 08018A   20342.88729919 -.00000317  00000-0  00000-0 0  9998
2 32767   0.0148 321.3240 0001693 311.2603 255.9189  1.00269178 46373
STAR ONE C2             
1 32768U 08018B   20343.17451182 -.00000253  00000-0  00000-0 0  9995
2 32768   0.0554 123.4884 0001852 126.4372 180.3216  1.00271816 46448
TIANLIAN 1-01           
1 32779U 08019A   20342.80401264 -.00000128  00000-0  00000-0 0  9994
2 32779   4.4992  71.8117 0032102 256.9336 117.7004  1.00270918 46193
AMOS-3                  
1 32794U 08022A   20343.34077208 -.00000024  00000-0  00000+0 0  9996
2 32794   0.0415 132.6345 0002332 103.8212 319.6675  1.00271485 46227
GALAXY 18 (G-18)        
1 32951U 08024A   20343.26636782  .00000036  00000-0  00000-0 0  9995
2 32951   0.0155 296.5069 0002904 322.4494 151.4294  1.00274682 25657
CHINASAT 9 (ZX 9)       
1 33051U 08028A   20343.10535667 -.00000236  00000-0  00000-0 0  9997
2 33051   0.0125  43.0241 0004220 229.8231 294.6205  1.00269885 45816
SKYNET 5C               
1 33055U 08030A   20343.40882671 -.00000128  00000-0  00000+0 0  9996
2 33055   0.0619   8.0264 0004270 245.1012 313.8732  1.00271650 45673
TURKSAT 3A              
1 33056U 08030B   20343.12758083  .00000157  00000-0  00000-0 0  9997
2 33056   0.0702  91.3293 0002917 161.5511 272.3958  1.00269635 32131
INTELSAT 25 (IS-25)     
1 33153U 08034A   20343.19215823 -.00000212  00000-0  00000-0 0  9999
2 33153   0.0254 265.8762 0002774 350.8563 218.3590  1.00270685 45505
BADR-6                  
1 33154U 08034B   20343.08521521  .00000156  00000-0  00000-0 0  9999
2 33154   0.0646  47.4884 0002555 251.2530 195.2376  1.00270460 45534
ECHOSTAR 11             
1 33207U 08035A   20343.18677837 -.00000045  00000-0  00000-0 0  9990
2 33207   0.0247  81.8208 0002459 181.9799 130.8518  1.00270967 31014
SUPERBIRD-C2            
1 33274U 08038A   20343.20129608 -.00000241  00000-0  00000-0 0  9996
2 33274   0.0126 321.4187 0001728 302.7650  29.6281  1.00266509 85502
AMC-21                  
1 33275U 08038B   20343.26519889  .00000048  00000-0  00000-0 0  9991
2 33275   0.0115 349.9674 0002729 276.3490 141.7567  1.00271833 45265
INMARSAT 4-F3           
1 33278U 08039A   20343.15974642 -.00000129  00000-0  00000-0 0  9996
2 33278   3.1673  14.2011 0002844 242.1430 140.5406  1.00271390 26335
NIMIQ 4                 
1 33373U 08044A   20343.42972230 -.00000210  00000-0  00000+0 0  9999
2 33373   0.0427 297.4030 0002641 312.2408 260.7322  1.00273557 44619
GALAXY 19 (G-19)        
1 33376U 08045A   20343.17410801 -.00000128  00000-0  00000-0 0  9995
2 33376   0.0180 315.5087 0003006 302.7617 144.8136  1.00273604 44713
